OBJECT_NAME,OBJECT_ID,EPOCH,MEAN_MOTION,ECCENTRICITY,INCLINATION,RA_OF_ASC_NODE,ARG_OF_PERICENTER,MEAN_ANOMALY,EPHEMERIS_TYPE,CLASSIFICATION_TYPE,NORAD_CAT_ID,ELEMENT_SET_NO,REV_AT_EPOCH,BSTAR,MEAN_MOTION_DOT,MEAN_MOTION_DDOT
STARLINK-37607,2026-133G,2026-06-26T22:00:01.999584,15.80897663,.00007228,53.1590,273.2026,63.5669,76.4772,0,U,69514,999,342,-.22072133E-3,-.44087E-3,0
STARLINK-37232,2026-133H,2026-06-26T22:00:01.999584,15.80901919,.00011963,53.1588,273.1572,86.4403,75.6420,0,U,69515,999,342,-.27152932E-3,-.54028E-3,0
STARLINK-37323,2026-133J,2026-06-26T22:00:01.999584,15.80882449,.00013845,53.1592,273.1502,79.5371,85.7306,0,U,69516,999,342,-.13704116E-3,-.27673E-3,0
STARLINK-37357,2026-133K,2026-06-26T22:00:01.999584,15.80881292,.0001078,53.1590,273.1232,99.4965,78.8646,0,U,69517,999,342,-.15281227E-3,-.30763E-3,0
STARLINK-37408,2026-133L,2026-06-26T22:00:01.999584,15.80879257,.000133,53.1591,273.1086,41.2549,144.1045,0,U,69518,999,342,-.11053196E-3,-.22465E-3,0
STARLINK-37570,2026-133M,2026-06-26T22:00:01.999584,15.80880357,.00006579,53.1594,273.0478,71.2835,143.2281,0,U,69519,999,342,-.41144503E-4,-.8813E-4,0
STARLINK-37510,2026-133N,2026-06-26T22:00:01.999584,15.80880249,.00006919,53.1592,273.0823,88.8301,109.2053,0,U,69520,999,342,-.15571561E-3,-.31329E-3,0
STARLINK-37586,2026-133P,2026-06-26T22:00:01.999584,15.82163732,.00007863,53.1587,272.9733,58.2232,192.0075,0,U,69521,999,343,-.29437999E-2,-.578197E-2,0
STARLINK-37379,2026-133Q,2026-06-26T22:00:01.999584,15.80869507,.00004788,53.1595,272.9788,81.5958,165.9261,0,U,69522,999,347,.4741631E-5,.238E-5,0
STARLINK-37429,2026-133R,2026-06-26T22:00:01.999584,15.80896120,.00008915,53.1595,272.9587,57.1763,199.8475,0,U,69523,999,347,-.13537133E-3,-.2736E-3,0
STARLINK-37352,2026-133S,2026-06-26T22:00:01.999584,15.80896030,.00004337,53.1593,272.9268,91.3629,181.0356,0,U,69524,999,347,-.16628277E-3,-.33423E-3,0
STARLINK-37490,2026-133T,2026-06-26T22:00:01.999584,15.82655847,.00005881,53.1576,272.8327,81.6027,235.9849,0,U,69525,999,347,-.10281921E-1,-.1923028E-1,0
STARLINK-37438,2026-133U,2026-06-26T22:00:01.999584,15.80892714,.00010743,53.1590,272.9003,89.0440,196.2356,0,U,69526,999,347,-.20055802E-3,-.40135E-3,0
STARLINK-37484,2026-133V,2026-06-26T22:00:01.999584,15.82958101,.00006077,53.1572,272.8181,56.7963,267.8784,0,U,69527,999,347,-.10098519E-1,-.1917053E-1,0
STARLINK-37523,2026-133W,2026-06-26T22:00:01.999584,15.81285238,.00011454,53.1580,272.8133,70.0917,256.8355,0,U,69528,999,348,-.32214765E-2,-.605395E-2,0
STARLINK-37369,2026-133X,2026-06-26T22:00:01.999584,15.81958154,.00005783,53.1573,272.7894,71.6018,266.4900,0,U,69529,999,348,-.78235474E-2,-.144079E-1,0
STARLINK-37670,2026-133Y,2026-06-26T22:00:01.999584,15.82779618,.00007131,53.1569,272.7478,80.4499,277.9516,0,U,69530,999,348,-.1008768E-1,-.190124E-1,0
STARLINK-37897,2026-133Z,2026-06-26T22:00:01.999584,15.83179647,.00008322,53.1566,272.7155,60.4331,313.2020,0,U,69531,999,343,-.95603112E-2,-.184478E-1,0
STARLINK-37933,2026-133AA,2026-06-26T22:00:01.999584,15.83472923,.00009447,53.1563,272.6699,63.1852,332.2157,0,U,69532,999,343,-.84992147E-2,-.1650758E-1,0
STARLINK-37890,2026-133AB,2026-06-26T22:00:01.999584,15.85313975,.00011236,53.1555,272.6266,55.2713,1.0014,0,U,69533,999,343,-.95723483E-2,-.2020416E-1,0
STARLINK-37407,2026-133AC,2026-06-26T22:00:01.999584,15.85715990,.00010775,53.1552,272.5852,53.1790,22.5813,0,U,69534,999,348,-.10361386E-1,-.2198343E-1,0
STARLINK-37888,2026-133AD,2026-06-26T22:00:01.999584,15.88046807,.00011586,53.1551,272.5364,48.3808,50.9186,0,U,69535,999,343,-.84393169E-2,-.20377E-1,0
STARLINK-37889,2026-133AE,2026-06-26T22:00:01.999584,15.81341208,.00012372,53.1596,273.0170,53.6128,176.9163,0,U,69536,999,342,-.35801826E-2,-.669568E-2,0
2026-134A,2026-134A,2026-06-26T22:25:46.938720,15.09297618,.00145741,97.7017,248.0745,234.7765,125.2100,0,U,69538,999,178,.37978756E-3,.6003E-4,0
2026-134B,2026-134B,2026-06-26T22:24:01.505664,15.09453894,.00146614,97.6991,248.0727,237.4220,122.5593,0,U,69539,999,177,.36261355E-3,.5753E-4,0
2026-134C,2026-134C,2026-06-25T17:45:26.744832,15.09471365,.00140699,97.6994,246.8758,243.2483,116.7306,0,U,69540,999,159,.41696143E-3,.6628E-4,0
2026-134D,2026-134D,2026-06-26T22:23:01.912128,15.09543228,.00151411,97.7036,248.0796,238.4275,121.5476,0,U,69541,999,177,.37784798E-3,.6013E-4,0
2026-134E,2026-134E,2026-06-26T22:22:47.089344,15.09565186,.00148799,97.7055,248.0825,239.1843,120.7921,0,U,69542,999,177,.37356659E-3,.5947E-4,0
2026-134F,2026-134F,2026-06-26T22:22:16.292928,15.09611012,.00141361,97.7008,248.0766,240.8958,119.0856,0,U,69543,999,177,.36955838E-3,.5889E-4,0
