STARLINK-37607          
1 69514U 26133G   26177.91668981 -.00044087  00000+0 -22072-3 0  9991
2 69514  53.1590 273.2026 0000722  63.5669  76.4772 15.80897663  3423
STARLINK-37232          
1 69515U 26133H   26177.91668981 -.00054028  00000+0 -27153-3 0  9993
2 69515  53.1588 273.1572 0001196  86.4403  75.6420 15.80901919  3423
STARLINK-37323          
1 69516U 26133J   26177.91668981 -.00027673  00000+0 -13704-3 0  9997
2 69516  53.1592 273.1502 0001384  79.5371  85.7306 15.80882449  3429
STARLINK-37357          
1 69517U 26133K   26177.91668981 -.00030763  00000+0 -15281-3 0  9994
2 69517  53.1590 273.1232 0001078  99.4965  78.8646 15.80881292  3423
STARLINK-37408          
1 69518U 26133L   26177.91668981 -.00022465  00000+0 -11053-3 0  9998
2 69518  53.1591 273.1086 0001330  41.2549 144.1045 15.80879257  3424
STARLINK-37570          
1 69519U 26133M   26177.91668981 -.00008813  00000+0 -41145-4 0  9996
2 69519  53.1594 273.0478 0000657  71.2835 143.2281 15.80880357  3429
STARLINK-37510          
1 69520U 26133N   26177.91668981 -.00031329  00000+0 -15572-3 0  9990
2 69520  53.1592 273.0823 0000691  88.8301 109.2053 15.80880249  3422
STARLINK-37586          
1 69521U 26133P   26177.91668981 -.00578197  00000+0 -29438-2 0  9995
2 69521  53.1587 272.9733 0000786  58.2232 192.0075 15.82163732  3432
STARLINK-37379          
1 69522U 26133Q   26177.91668981  .00000238  00000+0  47416-5 0  9999
2 69522  53.1595 272.9788 0000478  81.5958 165.9261 15.80869507  3475
STARLINK-37429          
1 69523U 26133R   26177.91668981 -.00027360  00000+0 -13537-3 0  9992
2 69523  53.1595 272.9587 0000891  57.1763 199.8475 15.80896120  3479
STARLINK-37352          
1 69524U 26133S   26177.91668981 -.00033423  00000+0 -16628-3 0  9994
2 69524  53.1593 272.9268 0000433  91.3629 181.0356 15.80896030  3478
STARLINK-37490          
1 69525U 26133T   26177.91668981 -.01923028  00000+0 -10282-1 0  9993
2 69525  53.1576 272.8327 0000588  81.6027 235.9849 15.82655847  3477
STARLINK-37438          
1 69526U 26133U   26177.91668981 -.00040135  00000+0 -20056-3 0  9994
2 69526  53.1590 272.9003 0001074  89.0440 196.2356 15.80892714  3474
STARLINK-37484          
1 69527U 26133V   26177.91668981 -.01917053  00000+0 -10099-1 0  9992
2 69527  53.1572 272.8181 0000607  56.7963 267.8784 15.82958101  3478
STARLINK-37523          
1 69528U 26133W   26177.91668981 -.00605395  00000+0 -32215-2 0  9990
2 69528  53.1580 272.8133 0001145  70.0917 256.8355 15.81285238  3487
STARLINK-37369          
1 69529U 26133X   26177.91668981 -.01440790  00000+0 -78235-2 0  9990
2 69529  53.1573 272.7894 0000578  71.6018 266.4900 15.81958154  3488
STARLINK-37670          
1 69530U 26133Y   26177.91668981 -.01901240  00000+0 -10088-1 0  9995
2 69530  53.1569 272.7478 0000713  80.4499 277.9516 15.82779618  3482
STARLINK-37897          
1 69531U 26133Z   26177.91668981 -.01844780  00000+0 -95603-2 0  9998
2 69531  53.1566 272.7155 0000832  60.4331 313.2020 15.83179647  3433
STARLINK-37933          
1 69532U 26133AA  26177.91668981 -.01650758  00000+0 -84992-2 0  9998
2 69532  53.1563 272.6699 0000944  63.1852 332.2157 15.83472923  3430
STARLINK-37890          
1 69533U 26133AB  26177.91668981 -.02020416  00000+0 -95723-2 0  9996
2 69533  53.1555 272.6266 0001123  55.2713   1.0014 15.85313975  3436
STARLINK-37407          
1 69534U 26133AC  26177.91668981 -.02198343  00000+0 -10361-1 0  9996
2 69534  53.1552 272.5852 0001077  53.1790  22.5813 15.85715990  3487
STARLINK-37888          
1 69535U 26133AD  26177.91668981 -.02037700  00000+0 -84393-2 0  9993
2 69535  53.1551 272.5364 0001158  48.3808  50.9186 15.88046807  3431
STARLINK-37889          
1 69536U 26133AE  26177.91668981 -.00669568  00000+0 -35802-2 0  9996
2 69536  53.1596 273.0170 0001237  53.6128 176.9163 15.81341208  3423
2026-134A               
1 69538U 26134A   26177.93457105  .00006003  00000+0  37979-3 0  9990
2 69538  97.7017 248.0745 0014574 234.7765 125.2100 15.09297618  1784
2026-134B               
1 69539U 26134B   26177.93335076  .00005753  00000+0  36261-3 0  9997
2 69539  97.6991 248.0727 0014661 237.4220 122.5593 15.09453894  1773
2026-134C               
1 69540U 26134C   26176.73989288  .00006628  00000+0  41696-3 0  9996
2 69540  97.6994 246.8758 0014069 243.2483 116.7306 15.09471365  1596
2026-134D               
1 69541U 26134D   26177.93266102  .00006013  00000+0  37785-3 0  9995
2 69541  97.7036 248.0796 0015141 238.4275 121.5476 15.09543228  1778
2026-134E               
1 69542U 26134E   26177.93248946  .00005947  00000+0  37357-3 0  9992
2 69542  97.7055 248.0825 0014879 239.1843 120.7921 15.09565186  1772
2026-134F               
1 69543U 26134F   26177.93213302  .00005889  00000+0  36956-3 0  9990
2 69543  97.7008 248.0766 0014136 240.8958 119.0856 15.09611012  1775
